FLOCK 4H-34             
1 66737U 25276BZ  26197.86212446  .00003860  00000+0  17796-3 0  9998
2 66737  97.4226 271.2499 0002783 165.6843 194.4472 15.20852365 34193
FLOCK 4H-35             
1 66738U 25276CA  26197.44300384  .00003283  00000+0  15132-3 0  9993
2 66738  97.4188 270.7744 0002696 149.3804 210.7589 15.20963315 34174
FLOCK 4H-36             
1 66739U 25276CB  26197.15274002  .00003668  00000+0  16989-3 0  9997
2 66739  97.4238 270.5437 0002559 180.4888 179.6345 15.20725723 34839
